[
    {
        "CCSDS_OMM_VERS": "3.0",
        "COMMENT": "GENERATED VIA SPACE-TRACK.ORG API",
        "CREATION_DATE": "2025-05-04T02:26:54",
        "ORIGINATOR": "18 SPCS",
        "OBJECT_NAME": "NAVSTAR 68 (USA 242)",
        "OBJECT_ID": "2013-023A",
        "CENTER_NAME": "EARTH",
        "REF_FRAME": "TEME",
        "TIME_SYSTEM": "UTC",
        "MEAN_ELEMENT_THEORY": "SGP4",
        "EPOCH": "2025-05-03T08:27:20.797056",
        "MEAN_MOTION": "2.00561359",
        "ECCENTRICITY": "0.01333370",
        "INCLINATION": "54.8378",
        "RA_OF_ASC_NODE": "285.6359",
        "ARG_OF_PERICENTER": "47.6894",
        "MEAN_ANOMALY": "313.4095",
        "EPHEMERIS_TYPE": "0",
        "CLASSIFICATION_TYPE": "U",
        "NORAD_CAT_ID": "39166",
        "ELEMENT_SET_NO": "999",
        "REV_AT_EPOCH": "8766",
        "BSTAR": "0.00000000000000",
        "MEAN_MOTION_DOT": "-0.00000034",
        "MEAN_MOTION_DDOT": "0.0000000000000",
        "SEMIMAJOR_AXIS": "26560.546",
        "PERIOD": "717.985",
        "APOAPSIS": "20536.561",
        "PERIAPSIS": "19828.261",
        "OBJECT_TYPE": "PAYLOAD",
        "RCS_SIZE": "LARGE",
        "COUNTRY_CODE": "US",
        "LAUNCH_DATE": "2013-05-15",
        "SITE": "AFETR",
        "DECAY_DATE": null,
        "FILE": "4718307",
        "GP_ID": "286796832",
        "TLE_LINE0": "0 NAVSTAR 68 (USA 242)",
        "TLE_LINE1": "1 39166U 13023A   25123.35232404 -.00000034  00000-0  00000-0 0  9998",
        "TLE_LINE2": "2 39166  54.8378 285.6359 0133337  47.6894 313.4095  2.00561359 87661"
    }
]